H-2A R/B                
1 28932U 06002B   26076.65899949  .00007748  00000+0  38711-3 0  9990
2 28932  98.2420 224.3699 0052028 213.5875 146.2054 15.16596994 95645
RESURS-DK 1             
1 29228U 06021A   26076.66854682  .00002700  00000+0  15951-3 0  9990
2 29228  69.9329 216.3821 0001062 146.5316 213.5918 15.12802217 88735
CZ-4B R/B               
1 29507U 06046C   26076.59083244  .00003650  00000+0  18603-3 0  9999
2 29507  97.5580 121.4784 0031856 238.5732 121.2385 15.16985827 61246
CZ-2C R/B               
1 31114U 07010B   26076.54586492  .00000106  00000+0  67876-4 0  9996
2 31114  98.3985 189.4311 0057829 271.3270  88.1283 14.20249003980837
COSMO-SKYMED 1          
1 31598U 07023A   26076.62090376  .00003097  00000+0  27717-3 0  9997
2 31598  97.8881 267.7175 0001561  89.9357 270.2042 14.96602962 16096
COSMOS 2428             
1 31792U 07029A   26076.60535183 -.00000020  00000+0  14895-4 0  9995
2 31792  70.9440 186.7297 0009413 269.0146  90.9896 14.12947317965216
SL-16 R/B               
1 31793U 07029B   26076.64148901  .00000331  00000+0  19648-3 0  9992
2 31793  70.9758 155.6708 0002300 276.4606 235.9631 14.14837341966498
KORONAS-FOTON           
1 33504U 09003A   26076.47949702  .00010289  00000+0  22814-3 0  9999
2 33504  82.4270 267.7775 0011718 124.1446 236.0915 15.43510679946940
CZ-2C R/B               
1 37731U 11030B   26076.39061014  .00001472  00000+0  19154-3 0  9997
2 37731  97.8557  33.5002 0051757 326.8329 148.5254 14.81251582791233
H-2A R/B                
1 38341U 12025E   26076.42451844  .00002149  00000+0  19821-3 0  9991
2 38341  98.4736  44.0904 0043276 288.1940  71.4569 14.95223909749379
SHIJIAN-16 (SJ-16)      
1 39358U 13057A   26076.60656252  .00001616  00000+0  16037-3 0  9990
2 39358  74.9737 170.1027 0015366  92.4531 267.8417 14.92381752672686
SL-4 R/B                
1 39679U 14021B   26076.61419493  .00012717  00000+0  28042-3 0  9996
2 39679  51.6064 298.6119 0096833 131.8844 229.0453 15.39444345657490
