CCSDS_OMM_VERS = 2.0
CREATION_DATE  = 
ORIGINATOR     = 

OBJECT_NAME    = H-2A R/B
OBJECT_ID      = 2006-002B
CENTER_NAME    = EARTH
REF_FRAME      = TEME
TIME_SYSTEM    = UTC
MEAN_ELEMENT_THEORY = SGP/SGP4

EPOCH          = 2026-03-17T15:48:57.555936
MEAN_MOTION    = 15.16596994
ECCENTRICITY   = .00520282
INCLINATION    = 98.2420
RA_OF_ASC_NODE = 224.3699
ARG_OF_PERICENTER = 213.5875
MEAN_ANOMALY   = 146.2054

EPHEMERIS_TYPE = 0
CLASSIFICATION_TYPE = U
NORAD_CAT_ID   = 28932
ELEMENT_SET_NO = 999
REV_AT_EPOCH   = 9564
BSTAR          = .38710642E-3
MEAN_MOTION_DOT = .7748E-4
MEAN_MOTION_DDOT = 0

CCSDS_OMM_VERS = 2.0
CREATION_DATE  = 
ORIGINATOR     = 

OBJECT_NAME    = RESURS-DK 1
OBJECT_ID      = 2006-021A
CENTER_NAME    = EARTH
REF_FRAME      = TEME
TIME_SYSTEM    = UTC
MEAN_ELEMENT_THEORY = SGP/SGP4

EPOCH          = 2026-03-17T16:02:42.445248
MEAN_MOTION    = 15.12802217
ECCENTRICITY   = .00010621
INCLINATION    = 69.9329
RA_OF_ASC_NODE = 216.3821
ARG_OF_PERICENTER = 146.5316
MEAN_ANOMALY   = 213.5918

EPHEMERIS_TYPE = 0
CLASSIFICATION_TYPE = U
NORAD_CAT_ID   = 29228
ELEMENT_SET_NO = 999
REV_AT_EPOCH   = 8873
BSTAR          = .15951136E-3
MEAN_MOTION_DOT = .27E-4
MEAN_MOTION_DDOT = 0

CCSDS_OMM_VERS = 2.0
CREATION_DATE  = 
ORIGINATOR     = 

OBJECT_NAME    = CZ-4B R/B
OBJECT_ID      = 2006-046C
CENTER_NAME    = EARTH
REF_FRAME      = TEME
TIME_SYSTEM    = UTC
MEAN_ELEMENT_THEORY = SGP/SGP4

EPOCH          = 2026-03-17T14:10:47.922816
MEAN_MOTION    = 15.16985827
ECCENTRICITY   = .00318563
INCLINATION    = 97.5580
RA_OF_ASC_NODE = 121.4784
ARG_OF_PERICENTER = 238.5732
MEAN_ANOMALY   = 121.2385

EPHEMERIS_TYPE = 0
CLASSIFICATION_TYPE = U
NORAD_CAT_ID   = 29507
ELEMENT_SET_NO = 999
REV_AT_EPOCH   = 6124
BSTAR          = .18602888E-3
MEAN_MOTION_DOT = .365E-4
MEAN_MOTION_DDOT = 0

CCSDS_OMM_VERS = 2.0
CREATION_DATE  = 
ORIGINATOR     = 

OBJECT_NAME    = CZ-2C R/B
OBJECT_ID      = 2007-010B
CENTER_NAME    = EARTH
REF_FRAME      = TEME
TIME_SYSTEM    = UTC
MEAN_ELEMENT_THEORY = SGP/SGP4

EPOCH          = 2026-03-17T13:06:02.729088
MEAN_MOTION    = 14.20249003
ECCENTRICITY   = .00578299
INCLINATION    = 98.3985
RA_OF_ASC_NODE = 189.4311
ARG_OF_PERICENTER = 271.3270
MEAN_ANOMALY   = 88.1283

EPHEMERIS_TYPE = 0
CLASSIFICATION_TYPE = U
NORAD_CAT_ID   = 31114
ELEMENT_SET_NO = 999
REV_AT_EPOCH   = 98083
BSTAR          = .67875601E-4
MEAN_MOTION_DOT = .106E-5
MEAN_MOTION_DDOT = 0

CCSDS_OMM_VERS = 2.0
CREATION_DATE  = 
ORIGINATOR     = 

OBJECT_NAME    = COSMO-SKYMED 1
OBJECT_ID      = 2007-023A
CENTER_NAME    = EARTH
REF_FRAME      = TEME
TIME_SYSTEM    = UTC
MEAN_ELEMENT_THEORY = SGP/SGP4

EPOCH          = 2026-03-17T14:54:06.084864
MEAN_MOTION    = 14.96602962
ECCENTRICITY   = .00015614
INCLINATION    = 97.8881
RA_OF_ASC_NODE = 267.7175
ARG_OF_PERICENTER = 89.9357
MEAN_ANOMALY   = 270.2042

EPHEMERIS_TYPE = 0
CLASSIFICATION_TYPE = U
NORAD_CAT_ID   = 31598
ELEMENT_SET_NO = 999
REV_AT_EPOCH   = 1609
BSTAR          = .2771665E-3
MEAN_MOTION_DOT = .3097E-4
MEAN_MOTION_DDOT = 0

CCSDS_OMM_VERS = 2.0
CREATION_DATE  = 
ORIGINATOR     = 

OBJECT_NAME    = COSMOS 2428
OBJECT_ID      = 2007-029A
CENTER_NAME    = EARTH
REF_FRAME      = TEME
TIME_SYSTEM    = UTC
MEAN_ELEMENT_THEORY = SGP/SGP4

EPOCH          = 2026-03-17T14:31:42.398112
MEAN_MOTION    = 14.12947317
ECCENTRICITY   = .00094133
INCLINATION    = 70.9440
RA_OF_ASC_NODE = 186.7297
ARG_OF_PERICENTER = 269.0146
MEAN_ANOMALY   = 90.9896

EPHEMERIS_TYPE = 0
CLASSIFICATION_TYPE = U
NORAD_CAT_ID   = 31792
ELEMENT_SET_NO = 999
REV_AT_EPOCH   = 96521
BSTAR          = .14894663E-4
MEAN_MOTION_DOT = -.2E-6
MEAN_MOTION_DDOT = 0

CCSDS_OMM_VERS = 2.0
CREATION_DATE  = 
ORIGINATOR     = 

OBJECT_NAME    = SL-16 R/B
OBJECT_ID      = 2007-029B
CENTER_NAME    = EARTH
REF_FRAME      = TEME
TIME_SYSTEM    = UTC
MEAN_ELEMENT_THEORY = SGP/SGP4

EPOCH          = 2026-03-17T15:23:44.650464
MEAN_MOTION    = 14.14837341
ECCENTRICITY   = .00023008
INCLINATION    = 70.9758
RA_OF_ASC_NODE = 155.6708
ARG_OF_PERICENTER = 276.4606
MEAN_ANOMALY   = 235.9631

EPHEMERIS_TYPE = 0
CLASSIFICATION_TYPE = U
NORAD_CAT_ID   = 31793
ELEMENT_SET_NO = 999
REV_AT_EPOCH   = 96649
BSTAR          = .19647599E-3
MEAN_MOTION_DOT = .331E-5
MEAN_MOTION_DDOT = 0

CCSDS_OMM_VERS = 2.0
CREATION_DATE  = 
ORIGINATOR     = 

OBJECT_NAME    = KORONAS-FOTON
OBJECT_ID      = 2009-003A
CENTER_NAME    = EARTH
REF_FRAME      = TEME
TIME_SYSTEM    = UTC
MEAN_ELEMENT_THEORY = SGP/SGP4

EPOCH          = 2026-03-17T11:30:28.542528
MEAN_MOTION    = 15.43510679
ECCENTRICITY   = .00117181
INCLINATION    = 82.4270
RA_OF_ASC_NODE = 267.7775
ARG_OF_PERICENTER = 124.1446
MEAN_ANOMALY   = 236.0915

EPHEMERIS_TYPE = 0
CLASSIFICATION_TYPE = U
NORAD_CAT_ID   = 33504
ELEMENT_SET_NO = 999
REV_AT_EPOCH   = 94694
BSTAR          = .22813828E-3
MEAN_MOTION_DOT = .10289E-3
MEAN_MOTION_DDOT = 0

CCSDS_OMM_VERS = 2.0
CREATION_DATE  = 
ORIGINATOR     = 

OBJECT_NAME    = CZ-2C R/B
OBJECT_ID      = 2011-030B
CENTER_NAME    = EARTH
REF_FRAME      = TEME
TIME_SYSTEM    = UTC
MEAN_ELEMENT_THEORY = SGP/SGP4

EPOCH          = 2026-03-17T09:22:28.716096
MEAN_MOTION    = 14.81251582
ECCENTRICITY   = .00517573
INCLINATION    = 97.8557
RA_OF_ASC_NODE = 33.5002
ARG_OF_PERICENTER = 326.8329
MEAN_ANOMALY   = 148.5254

EPHEMERIS_TYPE = 0
CLASSIFICATION_TYPE = U
NORAD_CAT_ID   = 37731
ELEMENT_SET_NO = 999
REV_AT_EPOCH   = 79123
BSTAR          = .19154235E-3
MEAN_MOTION_DOT = .1472E-4
MEAN_MOTION_DDOT = 0

CCSDS_OMM_VERS = 2.0
CREATION_DATE  = 
ORIGINATOR     = 

OBJECT_NAME    = H-2A R/B
OBJECT_ID      = 2012-025E
CENTER_NAME    = EARTH
REF_FRAME      = TEME
TIME_SYSTEM    = UTC
MEAN_ELEMENT_THEORY = SGP/SGP4

EPOCH          = 2026-03-17T10:11:18.393216
MEAN_MOTION    = 14.95223909
ECCENTRICITY   = .00432768
INCLINATION    = 98.4736
RA_OF_ASC_NODE = 44.0904
ARG_OF_PERICENTER = 288.1940
MEAN_ANOMALY   = 71.4569

EPHEMERIS_TYPE = 0
CLASSIFICATION_TYPE = U
NORAD_CAT_ID   = 38341
ELEMENT_SET_NO = 999
REV_AT_EPOCH   = 74937
BSTAR          = .19820605E-3
MEAN_MOTION_DOT = .2149E-4
MEAN_MOTION_DDOT = 0

CCSDS_OMM_VERS = 2.0
CREATION_DATE  = 
ORIGINATOR     = 

OBJECT_NAME    = SHIJIAN-16 (SJ-16)
OBJECT_ID      = 2013-057A
CENTER_NAME    = EARTH
REF_FRAME      = TEME
TIME_SYSTEM    = UTC
MEAN_ELEMENT_THEORY = SGP/SGP4

EPOCH          = 2026-03-17T14:33:27.001728
MEAN_MOTION    = 14.92381752
ECCENTRICITY   = .00153667
INCLINATION    = 74.9737
RA_OF_ASC_NODE = 170.1027
ARG_OF_PERICENTER = 92.4531
MEAN_ANOMALY   = 267.8417

EPHEMERIS_TYPE = 0
CLASSIFICATION_TYPE = U
NORAD_CAT_ID   = 39358
ELEMENT_SET_NO = 999
REV_AT_EPOCH   = 67268
BSTAR          = .16037029E-3
MEAN_MOTION_DOT = .1616E-4
MEAN_MOTION_DDOT = 0

CCSDS_OMM_VERS = 2.0
CREATION_DATE  = 
ORIGINATOR     = 

OBJECT_NAME    = SL-4 R/B
OBJECT_ID      = 2014-021B
CENTER_NAME    = EARTH
REF_FRAME      = TEME
TIME_SYSTEM    = UTC
MEAN_ELEMENT_THEORY = SGP/SGP4

EPOCH          = 2026-03-17T14:44:26.441952
MEAN_MOTION    = 15.39444345
ECCENTRICITY   = .00968332
INCLINATION    = 51.6064
RA_OF_ASC_NODE = 298.6119
ARG_OF_PERICENTER = 131.8844
MEAN_ANOMALY   = 229.0453

EPHEMERIS_TYPE = 0
CLASSIFICATION_TYPE = U
NORAD_CAT_ID   = 39679
ELEMENT_SET_NO = 999
REV_AT_EPOCH   = 65749
BSTAR          = .28042454E-3
MEAN_MOTION_DOT = .12717E-3
MEAN_MOTION_DDOT = 0

